[
    {
        "Altitude(m)": 706733.926523592,
        "Argument of Periapsis(deg)": 0.009112096949301655,
        "Eccentricity": 0.0,
        "Inclination(deg)": 45.0,
        "Latitude(deg)": 42.5781814071382,
        "Longitude(deg)": 163.3362419025999,
        "Mean Anomaly(deg)": 107.40837331798463,
        "RAAN(deg)": 149.99139844683344,
        "Satellite Name": "Constellation 1 666",
        "Satellite Number": 666,
        "Semi-Major Axis(m)": 7083131.272910544,
        "Time(s)": 152
    },
    {
        "Altitude(m)": 706730.0610802156,
        "Argument of Periapsis(deg)": 0.009172044955547059,
        "Eccentricity": 0.0,
        "Inclination(deg)": 45.0,
        "Latitude(deg)": 42.560687094480215,
        "Longitude(deg)": 163.41091887984285,
        "Mean Anomaly(deg)": 107.46907445823452,
        "RAAN(deg)": 149.9913418576679,
        "Satellite Name": "Constellation 1 666",
        "Satellite Number": 666,
        "Semi-Major Axis(m)": 7083131.272910544,
        "Time(s)": 153
    },
    {
        "Altitude(m)": 706726.1844224816,
        "Argument of Periapsis(deg)": 0.009231992961792466,
        "Eccentricity": 0.0,
        "Inclination(deg)": 45.0,
        "Latitude(deg)": 42.54313860941926,
        "Longitude(deg)": 163.48555181329326,
        "Mean Anomaly(deg)": 107.52977559848446,
        "RAAN(deg)": 149.9912852685023,
        "Satellite Name": "Constellation 1 666",
        "Satellite Number": 666,
        "Semi-Major Axis(m)": 7083131.272910544,
        "Time(s)": 154
    },
    {
        "Altitude(m)": 706722.2965734743,
        "Argument of Periapsis(deg)": 0.009291940968037872,
        "Eccentricity": 0.0,
        "Inclination(deg)": 45.0,
        "Latitude(deg)": 42.52553601489934,
        "Longitude(deg)": 163.560140618819,
        "Mean Anomaly(deg)": 107.59047673873435,
        "RAAN(deg)": 149.99122867933673,
        "Satellite Name": "Constellation 1 666",
        "Satellite Number": 666,
        "Semi-Major Axis(m)": 7083131.272910544,
        "Time(s)": 155
    },
    {
        "Altitude(m)": 706718.3975563432,
        "Argument of Periapsis(deg)": 0.009351888974283276,
        "Eccentricity": 0.0,
        "Inclination(deg)": 45.0,
        "Latitude(deg)": 42.50787937396785,
        "Longitude(deg)": 163.63468504475424,
        "Mean Anomaly(deg)": 107.65117787898421,
        "RAAN(deg)": 149.99117209017115,
        "Satellite Name": "Constellation 1 666",
        "Satellite Number": 666,
        "Semi-Major Axis(m)": 7083131.272910544,
        "Time(s)": 156
    },
    {
        "Altitude(m)": 706714.4873943203,
        "Argument of Periapsis(deg)": 0.00941183698052868,
        "Eccentricity": 0.0,
        "Inclination(deg)": 45.0,
        "Latitude(deg)": 42.4901687497738,
        "Longitude(deg)": 163.70918534428768,
        "Mean Anomaly(deg)": 107.71187901923416,
        "RAAN(deg)": 149.9911155010056,
        "Satellite Name": "Constellation 1 666",
        "Satellite Number": 666,
        "Semi-Major Axis(m)": 7083131.272910544,
        "Time(s)": 157
    },
    {
        "Altitude(m)": 706710.5661106926,
        "Argument of Periapsis(deg)": 0.009471784986774088,
        "Eccentricity": 0.0,
        "Inclination(deg)": 45.0,
        "Latitude(deg)": 42.47240420556851,
        "Longitude(deg)": 163.78364126687936,
        "Mean Anomaly(deg)": 107.77258015948404,
        "RAAN(deg)": 149.99105891184004,
        "Satellite Name": "Constellation 1 666",
        "Satellite Number": 666,
        "Semi-Major Axis(m)": 7083131.272910544,
        "Time(s)": 158
    },
    {
        "Altitude(m)": 706706.6337288227,
        "Argument of Periapsis(deg)": 0.009531732993019492,
        "Eccentricity": 0.0,
        "Inclination(deg)": 45.0,
        "Latitude(deg)": 42.45458580470355,
        "Longitude(deg)": 163.85805273064884,
        "Mean Anomaly(deg)": 107.83328129973395,
        "RAAN(deg)": 149.99100232267443,
        "Satellite Name": "Constellation 1 666",
        "Satellite Number": 666,
        "Semi-Major Axis(m)": 7083131.272910544,
        "Time(s)": 159
    },
    {
        "Altitude(m)": 706702.6902721412,
        "Argument of Periapsis(deg)": 0.009591680999264898,
        "Eccentricity": 0.0,
        "Inclination(deg)": 45.0,
        "Latitude(deg)": 42.43671361063032,
        "Longitude(deg)": 163.93241965427785,
        "Mean Anomaly(deg)": 107.89398243998377,
        "RAAN(deg)": 149.99094573350888,
        "Satellite Name": "Constellation 1 666",
        "Satellite Number": 666,
        "Semi-Major Axis(m)": 7083131.272910544,
        "Time(s)": 160
    },
    {
        "Altitude(m)": 706698.735764147,
        "Argument of Periapsis(deg)": 0.009651629005510304,
        "Eccentricity": 0.0,
        "Inclination(deg)": 45.0,
        "Latitude(deg)": 42.418787686898824,
        "Longitude(deg)": 164.00674195701032,
        "Mean Anomaly(deg)": 107.95468358023378,
        "RAAN(deg)": 149.99088914434333,
        "Satellite Name": "Constellation 1 666",
        "Satellite Number": 666,
        "Semi-Major Axis(m)": 7083131.272910544,
        "Time(s)": 161
    },
    {
        "Altitude(m)": 706694.7702284135,
        "Argument of Periapsis(deg)": 0.00971157701175571,
        "Eccentricity": 0.0,
        "Inclination(deg)": 45.0,
        "Latitude(deg)": 42.400808097157196,
        "Longitude(deg)": 164.0810195586511,
        "Mean Anomaly(deg)": 108.01538472048364,
        "RAAN(deg)": 149.99083255517775,
        "Satellite Name": "Constellation 1 666",
        "Satellite Number": 666,
        "Semi-Major Axis(m)": 7083131.272910544,
        "Time(s)": 162
    },
    {
        "Altitude(m)": 706690.7936885698,
        "Argument of Periapsis(deg)": 0.009771525018001118,
        "Eccentricity": 0.0,
        "Inclination(deg)": 45.0,
        "Latitude(deg)": 42.382774905150754,
        "Longitude(deg)": 164.1552522114697,
        "Mean Anomaly(deg)": 108.07608586073351,
        "RAAN(deg)": 149.9907759660122,
        "Satellite Name": "Constellation 1 666",
        "Satellite Number": 666,
        "Semi-Major Axis(m)": 7083131.272910544,
        "Time(s)": 163
    },
    {
        "Altitude(m)": 706686.8061683285,
        "Argument of Periapsis(deg)": 0.00983147302424652,
        "Eccentricity": 0.0,
        "Inclination(deg)": 45.0,
        "Latitude(deg)": 42.364688174720136,
        "Longitude(deg)": 164.22944017258752,
        "Mean Anomaly(deg)": 108.13678700098349,
        "RAAN(deg)": 149.99071937684658,
        "Satellite Name": "Constellation 1 666",
        "Satellite Number": 666,
        "Semi-Major Axis(m)": 7083131.272910544,
        "Time(s)": 164
    },
    {
        "Altitude(m)": 706682.8076914563,
        "Argument of Periapsis(deg)": 0.009891421030491928,
        "Eccentricity": 0.0,
        "Inclination(deg)": 45.0,
        "Latitude(deg)": 42.34654796980224,
        "Longitude(deg)": 164.3035831953951,
        "Mean Anomaly(deg)": 108.19748814123332,
        "RAAN(deg)": 149.99066278768103,
        "Satellite Name": "Constellation 1 666",
        "Satellite Number": 666,
        "Semi-Major Axis(m)": 7083131.272910544,
        "Time(s)": 165
    },
    {
        "Altitude(m)": 706678.7982818054,
        "Argument of Periapsis(deg)": 0.009951369036737332,
        "Eccentricity": 0.0,
        "Inclination(deg)": 45.0,
        "Latitude(deg)": 42.32835435442778,
        "Longitude(deg)": 164.37768120194045,
        "Mean Anomaly(deg)": 108.25818928148325,
        "RAAN(deg)": 149.99060619851548,
        "Satellite Name": "Constellation 1 666",
        "Satellite Number": 666,
        "Semi-Major Axis(m)": 7083131.272910544,
        "Time(s)": 166
    },
    {
        "Altitude(m)": 706674.7779632809,
        "Argument of Periapsis(deg)": 0.010011317042982738,
        "Eccentricity": 0.0,
        "Inclination(deg)": 45.0,
        "Latitude(deg)": 42.310107392721285,
        "Longitude(deg)": 164.45173411483077,
        "Mean Anomaly(deg)": 108.31889042173313,
        "RAAN(deg)": 149.9905496093499,
        "Satellite Name": "Constellation 1 666",
        "Satellite Number": 666,
        "Semi-Major Axis(m)": 7083131.272910544,
        "Time(s)": 167
    },
    {
        "Altitude(m)": 706670.7467598576,
        "Argument of Periapsis(deg)": 0.010071265049228144,
        "Eccentricity": 0.0,
        "Inclination(deg)": 45.0,
        "Latitude(deg)": 42.29180714889973,
        "Longitude(deg)": 164.525741857233,
        "Mean Anomaly(deg)": 108.37959156198306,
        "RAAN(deg)": 149.99049302018435,
        "Satellite Name": "Constellation 1 666",
        "Satellite Number": 666,
        "Semi-Major Axis(m)": 7083131.272910544,
        "Time(s)": 168
    },
    {
        "Altitude(m)": 706666.7046955933,
        "Argument of Periapsis(deg)": 0.01013121305547355,
        "Eccentricity": 0.0,
        "Inclination(deg)": 45.0,
        "Latitude(deg)": 42.27345368727184,
        "Longitude(deg)": 164.5997043528728,
        "Mean Anomaly(deg)": 108.44029270223295,
        "RAAN(deg)": 149.99043643101876,
        "Satellite Name": "Constellation 1 666",
        "Satellite Number": 666,
        "Semi-Major Axis(m)": 7083131.272910544,
        "Time(s)": 169
    },
    {
        "Altitude(m)": 706662.6517945903,
        "Argument of Periapsis(deg)": 0.010191161061718957,
        "Eccentricity": 0.0,
        "Inclination(deg)": 45.0,
        "Latitude(deg)": 42.25504707223734,
        "Longitude(deg)": 164.67362152603405,
        "Mean Anomaly(deg)": 108.5009938424828,
        "RAAN(deg)": 149.99037984185318,
        "Satellite Name": "Constellation 1 666",
        "Satellite Number": 666,
        "Semi-Major Axis(m)": 7083131.272910544,
        "Time(s)": 170
    }
]